[{"OBJECT_NAME":"STARLINK-33822","OBJECT_ID":"2025-083AA","EPOCH":"2025-12-27T13:25:40.041408","MEAN_MOTION":15.27652613,"ECCENTRICITY":0.0003616,"INCLINATION":43.0048,"RA_OF_ASC_NODE":52.7201,"ARG_OF_PERICENTER":291.1588,"MEAN_ANOMALY":68.8877,"EPHEMERIS_TYPE":0,"CLASSIFICATION_TYPE":"U","NORAD_CAT_ID":63658,"ELEMENT_SET_NO":999,"REV_AT_EPOCH":3906,"BSTAR":0.0017315,"MEAN_MOTION_DOT":0.00047807,"MEAN_MOTION_DDOT":0},{"OBJECT_NAME":"STARLINK-33771","OBJECT_ID":"2025-083AB","EPOCH":"2025-12-27T12:53:33.218592","MEAN_MOTION":15.27589504,"ECCENTRICITY":0.0001498,"INCLINATION":43.0033,"RA_OF_ASC_NODE":56.0874,"ARG_OF_PERICENTER":282.2195,"MEAN_ANOMALY":77.8489,"EPHEMERIS_TYPE":0,"CLASSIFICATION_TYPE":"U","NORAD_CAT_ID":63659,"ELEMENT_SET_NO":999,"REV_AT_EPOCH":3902,"BSTAR":0.0012725,"MEAN_MOTION_DOT":0.00034931,"MEAN_MOTION_DDOT":0},{"OBJECT_NAME":"STARLINK-33810","OBJECT_ID":"2025-083AC","EPOCH":"2025-12-27T04:50:29.474592","MEAN_MOTION":15.27595687,"ECCENTRICITY":0.00014389,"INCLINATION":43.0017,"RA_OF_ASC_NODE":54.3292,"ARG_OF_PERICENTER":273.4267,"MEAN_ANOMALY":86.642,"EPHEMERIS_TYPE":0,"CLASSIFICATION_TYPE":"U","NORAD_CAT_ID":63660,"ELEMENT_SET_NO":999,"REV_AT_EPOCH":3901,"BSTAR":0.00082349707,"MEAN_MOTION_DOT":0.00022479,"MEAN_MOTION_DDOT":0},{"OBJECT_NAME":"STARLINK-33823","OBJECT_ID":"2025-083AD","EPOCH":"2025-12-27T03:55:11.797536","MEAN_MOTION":15.27617998,"ECCENTRICITY":0.00012195,"INCLINATION":43,"RA_OF_ASC_NODE":54.9072,"ARG_OF_PERICENTER":273.9467,"MEAN_ANOMALY":86.1245,"EPHEMERIS_TYPE":0,"CLASSIFICATION_TYPE":"U","NORAD_CAT_ID":63661,"ELEMENT_SET_NO":999,"REV_AT_EPOCH":3900,"BSTAR":0.0015135205,"MEAN_MOTION_DOT":0.00041671,"MEAN_MOTION_DDOT":0},{"OBJECT_NAME":"STARLINK-11651 [DTC]","OBJECT_ID":"2025-085A","EPOCH":"2025-12-27T16:47:50.235072","MEAN_MOTION":15.70895857,"ECCENTRICITY":7.65e-5,"INCLINATION":43.0014,"RA_OF_ASC_NODE":351.9987,"ARG_OF_PERICENTER":328.4218,"MEAN_ANOMALY":31.6604,"EPHEMERIS_TYPE":0,"CLASSIFICATION_TYPE":"U","NORAD_CAT_ID":63664,"ELEMENT_SET_NO":999,"REV_AT_EPOCH":3893,"BSTAR":0.0019987,"MEAN_MOTION_DOT":0.00264985,"MEAN_MOTION_DDOT":0},{"OBJECT_NAME":"STARLINK-11672 [DTC]","OBJECT_ID":"2025-085B","EPOCH":"2025-12-27T16:40:11.117568","MEAN_MOTION":15.70970552,"ECCENTRICITY":0.0001438,"INCLINATION":42.9997,"RA_OF_ASC_NODE":351.9555,"ARG_OF_PERICENTER":293.2859,"MEAN_ANOMALY":66.7857,"EPHEMERIS_TYPE":0,"CLASSIFICATION_TYPE":"U","NORAD_CAT_ID":63665,"ELEMENT_SET_NO":999,"REV_AT_EPOCH":3953,"BSTAR":0.002529,"MEAN_MOTION_DOT":0.00339522,"MEAN_MOTION_DDOT":0},{"OBJECT_NAME":"STARLINK-11664 [DTC]","OBJECT_ID":"2025-085C","EPOCH":"2025-12-27T01:18:26.468928","MEAN_MOTION":15.7106311,"ECCENTRICITY":0.00060579,"INCLINATION":42.9993,"RA_OF_ASC_NODE":356.6479,"ARG_OF_PERICENTER":290.992,"MEAN_ANOMALY":69.03,"EPHEMERIS_TYPE":0,"CLASSIFICATION_TYPE":"U","NORAD_CAT_ID":63666,"ELEMENT_SET_NO":999,"REV_AT_EPOCH":3882,"BSTAR":0.002327422,"MEAN_MOTION_DOT":0.00312794,"MEAN_MOTION_DDOT":0},{"OBJECT_NAME":"STARLINK-11666 [DTC]","OBJECT_ID":"2025-085D","EPOCH":"2025-12-27T05:51:48.043584","MEAN_MOTION":15.70907565,"ECCENTRICITY":0.0001883,"INCLINATION":43.0004,"RA_OF_ASC_NODE":355.4912,"ARG_OF_PERICENTER":264.6753,"MEAN_ANOMALY":95.3899,"EPHEMERIS_TYPE":0,"CLASSIFICATION_TYPE":"U","NORAD_CAT_ID":63667,"ELEMENT_SET_NO":999,"REV_AT_EPOCH":3875,"BSTAR":0.00063426,"MEAN_MOTION_DOT":0.00081977,"MEAN_MOTION_DDOT":0},{"OBJECT_NAME":"STARLINK-11663 [DTC]","OBJECT_ID":"2025-085E","EPOCH":"2025-12-27T08:47:16.840032","MEAN_MOTION":15.70895213,"ECCENTRICITY":0.0001314,"INCLINATION":42.9991,"RA_OF_ASC_NODE":354.68,"ARG_OF_PERICENTER":268.9078,"MEAN_ANOMALY":91.1639,"EPHEMERIS_TYPE":0,"CLASSIFICATION_TYPE":"U","NORAD_CAT_ID":63668,"ELEMENT_SET_NO":999,"REV_AT_EPOCH":3887,"BSTAR":0.0017039,"MEAN_MOTION_DOT":0.00224719,"MEAN_MOTION_DDOT":0},{"OBJECT_NAME":"STARLINK-11595 [DTC]","OBJECT_ID":"2025-085F","EPOCH":"2025-12-27T16:17:26.179872","MEAN_MOTION":15.71024925,"ECCENTRICITY":0.0001966,"INCLINATION":43.0021,"RA_OF_ASC_NODE":352.7205,"ARG_OF_PERICENTER":294.4091,"MEAN_ANOMALY":65.6572,"EPHEMERIS_TYPE":0,"CLASSIFICATION_TYPE":"U","NORAD_CAT_ID":63669,"ELEMENT_SET_NO":999,"REV_AT_EPOCH":3956,"BSTAR":0.0024984,"MEAN_MOTION_DOT":0.00336027,"MEAN_MOTION_DDOT":0},{"OBJECT_NAME":"STARLINK-11599 [DTC]","OBJECT_ID":"2025-085G","EPOCH":"2025-12-27T07:00:25.591104","MEAN_MOTION":15.71047061,"ECCENTRICITY":0.0001166,"INCLINATION":42.9999,"RA_OF_ASC_NODE":354.9767,"ARG_OF_PERICENTER":198.4293,"MEAN_ANOMALY":161.6532,"EPHEMERIS_TYPE":0,"CLASSIFICATION_TYPE":"U","NORAD_CAT_ID":63670,"ELEMENT_SET_NO":999,"REV_AT_EPOCH":3885,"BSTAR":0.0018292,"MEAN_MOTION_DOT":0.0024337,"MEAN_MOTION_DDOT":0},{"OBJECT_NAME":"STARLINK-11603 [DTC]","OBJECT_ID":"2025-085H","EPOCH":"2025-12-27T06:52:46.852032","MEAN_MOTION":15.70975116,"ECCENTRICITY":0.0001382,"INCLINATION":42.9995,"RA_OF_ASC_NODE":354.9343,"ARG_OF_PERICENTER":246.3837,"MEAN_ANOMALY":113.6886,"EPHEMERIS_TYPE":0,"CLASSIFICATION_TYPE":"U","NORAD_CAT_ID":63671,"ELEMENT_SET_NO":999,"REV_AT_EPOCH":3885,"BSTAR":0.0019881,"MEAN_MOTION_DOT":0.00264437,"MEAN_MOTION_DDOT":0},{"OBJECT_NAME":"STARLINK-11644 [DTC]","OBJECT_ID":"2025-085J","EPOCH":"2025-12-27T00:38:52.690272","MEAN_MOTION":15.71036434,"ECCENTRICITY":0.00016598,"INCLINATION":42.9985,"RA_OF_ASC_NODE":356.423,"ARG_OF_PERICENTER":248.4206,"MEAN_ANOMALY":111.6485,"EPHEMERIS_TYPE":0,"CLASSIFICATION_TYPE":"U","NORAD_CAT_ID":63672,"ELEMENT_SET_NO":999,"REV_AT_EPOCH":3881,"BSTAR":0.0017169998,"MEAN_MOTION_DOT":0.00227887,"MEAN_MOTION_DDOT":0},{"OBJECT_NAME":"STARLINK-11634 [DTC]","OBJECT_ID":"2025-085K","EPOCH":"2025-12-26T16:53:27.780864","MEAN_MOTION":15.71033761,"ECCENTRICITY":0.0001506,"INCLINATION":42.9983,"RA_OF_ASC_NODE":358.2981,"ARG_OF_PERICENTER":312.2546,"MEAN_ANOMALY":47.8194,"EPHEMERIS_TYPE":0,"CLASSIFICATION_TYPE":"U","NORAD_CAT_ID":63673,"ELEMENT_SET_NO":999,"REV_AT_EPOCH":3876,"BSTAR":0.0026352719,"MEAN_MOTION_DOT":0.00355442,"MEAN_MOTION_DDOT":0},{"OBJECT_NAME":"STARLINK-11656 [DTC]","OBJECT_ID":"2025-085L","EPOCH":"2025-12-27T06:29:50.588160","MEAN_MOTION":15.70901625,"ECCENTRICITY":0.000143,"INCLINATION":43.0008,"RA_OF_ASC_NODE":354.8044,"ARG_OF_PERICENTER":261.5641,"MEAN_ANOMALY":98.5065,"EPHEMERIS_TYPE":0,"CLASSIFICATION_TYPE":"U","NORAD_CAT_ID":63674,"ELEMENT_SET_NO":999,"REV_AT_EPOCH":3885,"BSTAR":0.001779,"MEAN_MOTION_DOT":0.00235001,"MEAN_MOTION_DDOT":0},{"OBJECT_NAME":"STARLINK-11655 [DTC]","OBJECT_ID":"2025-085M","EPOCH":"2025-12-27T01:47:31.256448","MEAN_MOTION":15.70858949,"ECCENTRICITY":0.00015289,"INCLINATION":42.9996,"RA_OF_ASC_NODE":355.9101,"ARG_OF_PERICENTER":254.2197,"MEAN_ANOMALY":105.8502,"EPHEMERIS_TYPE":0,"CLASSIFICATION_TYPE":"U","NORAD_CAT_ID":63675,"ELEMENT_SET_NO":999,"REV_AT_EPOCH":3882,"BSTAR":0.002036847,"MEAN_MOTION_DOT":0.00269784,"MEAN_MOTION_DDOT":0}]
