STARLINK-33822          
1 63658U 25083AA  25361.55949122  .00047807  00000+0  17315-2 0  9994
2 63658  43.0048  52.7201 0003616 291.1588  68.8877 15.27652613 39066
STARLINK-33771          
1 63659U 25083AB  25361.53719003  .00034931  00000+0  12725-2 0  9990
2 63659  43.0033  56.0874 0001498 282.2195  77.8489 15.27589504 39028
STARLINK-33810          
1 63660U 25083AC  25361.20173003  .00022479  00000+0  82350-3 0  9996
2 63660  43.0017  54.3292 0001438 273.4267  86.6420 15.27595687 39014
STARLINK-33823          
1 63661U 25083AD  25361.16333099  .00041671  00000+0  15135-2 0  9996
2 63661  43.0000  54.9072 0001219 273.9467  86.1245 15.27617998 39002
STARLINK-11651 [DTC]    
1 63664U 25085A   25361.69988698  .00264985  00000+0  19987-2 0  9994
2 63664  43.0014 351.9987 0000765 328.4218  31.6604 15.70895857 38935
STARLINK-11672 [DTC]    
1 63665U 25085B   25361.69457312  .00339522  00000+0  25290-2 0  9993
2 63665  42.9997 351.9555 0001438 293.2859  66.7857 15.70970552 39535
STARLINK-11664 [DTC]    
1 63666U 25085C   25361.05447302  .00312794  00000+0  23274-2 0  9994
2 63666  42.9993 356.6479 0006057 290.9920  69.0300 15.71063110 38828
STARLINK-11666 [DTC]    
1 63667U 25085D   25361.24430606  .00081977  00000+0  63426-3 0  9995
2 63667  43.0004 355.4912 0001883 264.6753  95.3899 15.70907565 38754
STARLINK-11663 [DTC]    
1 63668U 25085E   25361.36616713  .00224719  00000+0  17039-2 0  9995
2 63668  42.9991 354.6800 0001314 268.9078  91.1639 15.70895213 38876
STARLINK-11595 [DTC]    
1 63669U 25085F   25361.67877523  .00336027  00000+0  24984-2 0  9991
2 63669  43.0021 352.7205 0001966 294.4091  65.6572 15.71024925 39567
STARLINK-11599 [DTC]    
1 63670U 25085G   25361.29196286  .00243370  00000+0  18292-2 0  9994
2 63670  42.9999 354.9767 0001166 198.4293 161.6532 15.71047061 38857
STARLINK-11603 [DTC]    
1 63671U 25085H   25361.28665338  .00264437  00000+0  19881-2 0  9995
2 63671  42.9995 354.9343 0001382 246.3837 113.6886 15.70975116 38850
STARLINK-11644 [DTC]    
1 63672U 25085J   25361.02699873  .00227887  00000+0  17170-2 0  9996
2 63672  42.9985 356.4230 0001659 248.4206 111.6485 15.71036434 38813
STARLINK-11634 [DTC]    
1 63673U 25085K   25360.70379376  .00355442  00000+0  26353-2 0  9996
2 63673  42.9983 358.2981 0001506 312.2546  47.8194 15.71033761 38764
STARLINK-11656 [DTC]    
1 63674U 25085L   25361.27072440  .00235001  00000+0  17790-2 0  9995
2 63674  43.0008 354.8044 0001430 261.5641  98.5065 15.70901625 38857
STARLINK-11655 [DTC]    
1 63675U 25085M   25361.07466732  .00269784  00000+0  20368-2 0  9995
2 63675  42.9996 355.9101 0001528 254.2197 105.8502 15.70858949 38826
